TDRS 3                  
1 19548U 88091B   23291.04111333 -.00000287  00000+0  00000+0 0  9992
2 19548  13.3527 347.6385 0037054 330.4355  34.2091  1.00273859115638
HST                     
1 20580U 90037B   23291.36658909  .00006238  00000+0  31997-3 0  9997
2 20580  28.4679 167.7212 0002431 278.9605 243.2262 15.14492328640411
TDRS 5                  
1 21639U 91054B   23290.80608181  .00000097  00000+0  00000+0 0  9992
2 21639  14.1939   0.9070 0022670 358.0317 150.0204  1.00271797117959
TDRS 6                  
1 22314U 93003B   23291.04172250 -.00000283  00000+0  00000+0 0  9997
2 22314  14.1558   4.1955 0010869 162.5764 188.6696  1.00272850112640
TDRS 7                  
1 23613U 95035B   23291.13944891 -.00000190  00000+0  00000+0 0  9992
2 23613  13.7844 354.9499 0024023  70.7086  95.7813  1.00270428103399
ISS (ZARYA)             
1 25544U 98067A   23291.53041186  .00017953  00000+0  31776-3 0  9996
2 25544  51.6404  77.5756 0004521 114.7526 245.3933 15.50357024420925
LANDSAT 7               
1 25682U 99020A   23291.56918662  .00000792  00000+0  17312-3 0  9997
2 25682  97.9176 324.5182 0001529  80.4603  72.0539 14.60282859303789
TERRA                   
1 25994U 99068A   23291.49056461  .00000940  00000+0  20806-3 0  9994
2 25994  98.0819 356.7564 0002841  63.4838  66.1667 14.59380437267763
TDRS 8                  
1 26388U 00034A   23291.56230178  .00000108  00000+0  00000+0 0  9990
2 26388  11.1478  39.0972 0003797 188.0744 194.2977  1.00273226 85420
TIMED                   
1 26998U 01055B   23291.52377059  .00002952  00000+0  30801-3 0  9992
2 26998  74.0744  26.2924 0000509 230.5849 129.5287 14.90232913185802
TDRS 9                  
1 27389U 02011A   23290.84244855 -.00000075  00000+0  00000+0 0  9990
2 27389  10.0758  56.0541 0006223 117.5552 257.0755  0.98980300 80648
AQUA                    
1 27424U 02022A   23291.52161296  .00001953  00000+0  43099-3 0  9999
2 27424  98.2987 235.5923 0001742 100.8312  10.6369 14.58453276141334
TDRS 10                 
1 27566U 02055A   23291.56019656  .00000101  00000+0  00000+0 0  9993
2 27566   9.1052  47.0199 0002019 350.2519  20.1562  1.00267321 76474
SORCE                   
1 27651U 03004A   23291.50918029  .00004564  00000+0  44396-3 0  9996
2 27651  39.9955   7.0919 0020254 313.7600  46.1513 14.92926366125963
AURA                    
1 28376U 04026A   23291.46569578  .00001872  00000+0  41876-3 0  9991
2 28376  98.2212 233.5383 0001725  86.8347 273.3050 14.57855850 24341
SWIFT                   
1 28485U 04047A   23291.18982597  .00010336  00000+0  54048-3 0  9994
2 28485  20.5556 112.2007 0009871  31.4969 328.6056 15.13028205 37256
THEMIS A                
1 30580U 07004A   23290.34466160 -.00000599  00000+0 -66489-1 0  9991
2 30580  11.0270 287.1014 8322417 273.3354 215.6725  0.87834299 57400
THEMIS D                
1 30797U 07004D   23290.79202851 -.00000531  00000+0  00000+0 0  9995
2 30797   7.4846 276.9552 8289811 286.9460 343.8987  0.87834860 56934
THEMIS E                
1 30798U 07004E   23291.13817174 -.00000545  00000+0  00000+0 0  9990
2 30798   8.6269 296.2262 8293198 269.2931 110.7593  0.87832670 57358
AIM                     
1 31304U 07015A   23291.13112738  .00037032  00000+0  10404-2 0  9992
2 31304  97.8797 239.7149 0006204 106.3742 253.8183 15.36420905905515
FGRST (GLAST)           
1 33053U 08029A   23290.79259799  .00004224  00000+0  20459-3 0  9990
2 33053  25.5823  78.2584 0011975  77.8620 282.3257 15.14869111847609
WISE                    
1 36119U 09071A   23291.06845775  .00026064  00000+0  52145-3 0  9993
2 36119  97.1821 322.5923 0001931  46.9054 313.2358 15.46751567770486
TDRS 11                 
1 39070U 13004A   23291.55864175  .00000093  00000+0  00000+0 0  9995
2 39070   2.6940   2.6232 0003427  72.4198 338.5579  1.00276624 39239
TDRS 12                 
1 39504U 14004A   23291.40086487 -.00000260  00000+0  00000+0 0  9991
2 39504   3.5784 357.4823 0005798 208.1935 284.2480  1.00266248 35699
GPM-CORE                
1 39574U 14009C   23291.51420770  .00027389  00000+0  38449-3 0  9994
2 39574  64.9908 326.2847 0012115 268.4148  91.5611 15.56566092547566
MMS 1                   
1 40482U 15011A   23291.00001157 -.00000855  00000+0  00000+0 0  9994
2 40482  33.0892  40.1851 9212733 120.1297 103.6966  0.28601556  1356
MMS 2                   
1 40483U 15011B   23291.00001157 -.00000856  00000+0  00000+0 0  9996
2 40483  33.0941  40.1695 9214309 120.1547 103.6816  0.28601646  1351
MMS 3                   
1 40484U 15011C   23291.00001157 -.00000856  00000+0  00000+0 0  9997
2 40484  33.0935  40.1890 9212436 120.1385 103.6608  0.28601587  1354
MMS 4                   
1 40485U 15011D   23291.00001157 -.00000856  00000+0  00000+0 0  9998
2 40485  33.0808  40.1818 9212912 120.1447 103.6771  0.28601613  1353
TDRS 13                 
1 42915U 17047A   23291.04842324 -.00000089  00000+0  00000+0 0  9990
2 42915   3.8698 339.8567 0014943 128.7004 283.6887  1.00271913 22595
JPSS-1                  
1 43013U 17073A   23291.46997437  .00000207  00000+0  11905-3 0  9992
2 43013  98.7209 228.0036 0001509  94.4933 265.6415 14.19579578306460
